[{"OBJECT_NAME":"CONNECTA IOT-4","OBJECT_ID":"2024-149BJ","EPOCH":"2026-03-09T22:37:32.459520","MEAN_MOTION":15.38450788,"ECCENTRICITY":0.00046803,"INCLINATION":97.3832,"RA_OF_ASC_NODE":152.4047,"ARG_OF_PERICENTER":286.3357,"MEAN_ANOMALY":73.7373,"EPHEMERIS_TYPE":0,"CLASSIFICATION_TYPE":"U","NORAD_CAT_ID":60524,"ELEMENT_SET_NO":999,"REV_AT_EPOCH":8705,"BSTAR":0.00054636614,"MEAN_MOTION_DOT":0.00020678,"MEAN_MOTION_DDOT":0},{"OBJECT_NAME":"CZ-2C R\/B","OBJECT_ID":"2025-040C","EPOCH":"2026-03-09T20:48:45.699840","MEAN_MOTION":15.35891971,"ECCENTRICITY":0.00146139,"INCLINATION":97.1638,"RA_OF_ASC_NODE":181.5862,"ARG_OF_PERICENTER":64.9841,"MEAN_ANOMALY":295.2919,"EPHEMERIS_TYPE":0,"CLASSIFICATION_TYPE":"U","NORAD_CAT_ID":63127,"ELEMENT_SET_NO":999,"REV_AT_EPOCH":5741,"BSTAR":0.00046093655,"MEAN_MOTION_DOT":0.00016093,"MEAN_MOTION_DDOT":0}]
